{
  "type": "FeatureCollection",
  "features": [
    {
      "type": "Feature",
      "properties": {
        "norad_id": 29770,
        "name": "FENGYUN 1C DEB",
        "group": "fengyun-1c-debris",
        "lat": -50.24595832914075,
        "lon": -115.9277021112722,
        "alt_km": 785.6554443316463,
        "timestamp": "2025-12-25T07:00:34.316923+00:00",
        "meta_object_name": "FENGYUN 1C DEB",
        "meta_object_id": "1999-025BL",
        "meta_epoch": "2025-12-24T18:41:56.299776",
        "meta_mean_motion": 14.20186053,
        "meta_eccentricity": 0.00639206,
        "meta_inclination": 98.8452,
        "meta_ra_of_asc_node": 74.349,
        "meta_arg_of_pericenter": 236.8219,
        "meta_mean_anomaly": 253.213,
        "meta_ephemeris_type": 0,
        "meta_classification_type": "U",
        "meta_norad_cat_id": 29770,
        "meta_element_set_no": 999,
        "meta_rev_at_epoch": 97257,
        "meta_bstar": 0.0014500088,
        "meta_mean_motion_dot": 3.115e-05,
        "meta_mean_motion_ddot": 0,
        "tle_line1": "1 29770U 99025BL  25358.77912384  .00003115  00000+0  14500-2 0  9995",
        "tle_line2": "2 29770  98.8452  74.3490 0063920 236.8219 253.2130 14.20186053972577"
      },
      "geometry": {
        "type": "Point",
        "coordinates": [
          -115.9277021112722,
          -50.24595832914075
        ]
      }
    },
    {
      "type": "Feature",
      "properties": {
        "norad_id": 29772,
        "name": "FENGYUN 1C DEB",
        "group": "fengyun-1c-debris",
        "lat": 72.19831846421961,
        "lon": 54.85708695565414,
        "alt_km": 960.8694764957745,
        "timestamp": "2025-12-25T07:00:34.316934+00:00",
        "meta_object_name": "FENGYUN 1C DEB",
        "meta_object_id": "1999-025BN",
        "meta_epoch": "2025-12-24T13:39:37.897632",
        "meta_mean_motion": 14.03249705,
        "meta_eccentricity": 0.01369059,
        "meta_inclination": 98.3837,
        "meta_ra_of_asc_node": 206.8509,
        "meta_arg_of_pericenter": 257.2434,
        "meta_mean_anomaly": 159.5842,
        "meta_ephemeris_type": 0,
        "meta_classification_type": "U",
        "meta_norad_cat_id": 29772,
        "meta_element_set_no": 999,
        "meta_rev_at_epoch": 96421,
        "meta_bstar": 0.00095382365,
        "meta_mean_motion_dot": 1.576e-05,
        "meta_mean_motion_ddot": 0,
        "tle_line1": "1 29772U 99025BN  25358.56918863  .00001576  00000+0  95382-3 0  9999",
        "tle_line2": "2 29772  98.3837 206.8509 0136905 257.2434 159.5842 14.03249705964219"
      },
      "geometry": {
        "type": "Point",
        "coordinates": [
          54.85708695565414,
          72.19831846421961
        ]
      }
    },
    {
      "type": "Feature",
      "properties": {
        "norad_id": 29773,
        "name": "FENGYUN 1C DEB",
        "group": "fengyun-1c-debris",
        "lat": 7.064331938167464,
        "lon": -25.626062472336923,
        "alt_km": 796.4407127821141,
        "timestamp": "2025-12-25T07:00:34.316944+00:00",
        "meta_object_name": "FENGYUN 1C DEB",
        "meta_object_id": "1999-025BP",
        "meta_epoch": "2025-12-24T22:22:56.728128",
        "meta_mean_motion": 14.27592734,
        "meta_eccentricity": 0.00465086,
        "meta_inclination": 98.9878,
        "meta_ra_of_asc_node": 152.8806,
        "meta_arg_of_pericenter": 254.9093,
        "meta_mean_anomaly": 231.9884,
        "meta_ephemeris_type": 0,
        "meta_classification_type": "U",
        "meta_norad_cat_id": 29773,
        "meta_element_set_no": 999,
        "meta_rev_at_epoch": 98371,
        "meta_bstar": 0.00039342161,
        "meta_mean_motion_dot": 9.32e-06,
        "meta_mean_motion_ddot": 0,
        "tle_line1": "1 29773U 99025BP  25358.93260102  .00000932  00000+0  39342-3 0  9996",
        "tle_line2": "2 29773  98.9878 152.8806 0046508 254.9093 231.9884 14.27592734983711"
      },
      "geometry": {
        "type": "Point",
        "coordinates": [
          -25.626062472336923,
          7.064331938167464
        ]
      }
    },
    {
      "type": "Feature",
      "properties": {
        "norad_id": 29774,
        "name": "FENGYUN 1C DEB",
        "group": "fengyun-1c-debris",
        "lat": -75.58374769247753,
        "lon": -21.541747066289247,
        "alt_km": 859.3187721037557,
        "timestamp": "2025-12-25T07:00:34.316955+00:00",
        "meta_object_name": "FENGYUN 1C DEB",
        "meta_object_id": "1999-025BQ",
        "meta_epoch": "2025-12-24T19:49:25.836672",
        "meta_mean_motion": 14.22741986,
        "meta_eccentricity": 0.00513371,
        "meta_inclination": 99.0781,
        "meta_ra_of_asc_node": 299.5177,
        "meta_arg_of_pericenter": 89.2825,
        "meta_mean_anomaly": 326.3014,
        "meta_ephemeris_type": 0,
        "meta_classification_type": "U",
        "meta_norad_cat_id": 29774,
        "meta_element_set_no": 999,
        "meta_rev_at_epoch": 98247,
        "meta_bstar": 0.0001799684,
        "meta_mean_motion_dot": 3.62e-06,
        "meta_mean_motion_ddot": 0,
        "tle_line1": "1 29774U 99025BQ  25358.82599348  .00000362  00000+0  17997-3 0  9991",
        "tle_line2": "2 29774  99.0781 299.5177 0051337  89.2825 326.3014 14.22741986982471"
      },
      "geometry": {
        "type": "Point",
        "coordinates": [
          -21.541747066289247,
          -75.58374769247753
        ]
      }
    },
    {
      "type": "Feature",
      "properties": {
        "norad_id": 29776,
        "name": "FENGYUN 1C DEB",
        "group": "fengyun-1c-debris",
        "lat": -32.503857434746905,
        "lon": -159.9612052157033,
        "alt_km": 857.4654675584061,
        "timestamp": "2025-12-25T07:00:34.316965+00:00",
        "meta_object_name": "FENGYUN 1C DEB",
        "meta_object_id": "1999-025BS",
        "meta_epoch": "2025-12-24T20:36:36.895104",
        "meta_mean_motion": 14.0778167,
        "meta_eccentricity": 0.00230345,
        "meta_inclination": 98.77,
        "meta_ra_of_asc_node": 25.2627,
        "meta_arg_of_pericenter": 235.4373,
        "meta_mean_anomaly": 302.7252,
        "meta_ephemeris_type": 0,
        "meta_classification_type": "U",
        "meta_norad_cat_id": 29776,
        "meta_element_set_no": 999,
        "meta_rev_at_epoch": 97250,
        "meta_bstar": 7.0235943e-05,
        "meta_mean_motion_dot": 7.6e-07,
        "meta_mean_motion_ddot": 0,
        "tle_line1": "1 29776U 99025BS  25358.85876036  .00000076  00000+0  70236-4 0  9996",
        "tle_line2": "2 29776  98.7700  25.2627 0023034 235.4373 302.7252 14.07781670972502"
      },
      "geometry": {
        "type": "Point",
        "coordinates": [
          -159.9612052157033,
          -32.503857434746905
        ]
      }
    },
    {
      "type": "Feature",
      "properties": {
        "norad_id": 29777,
        "name": "FENGYUN 1C DEB",
        "group": "fengyun-1c-debris",
        "lat": -80.23481240674856,
        "lon": 128.00706218826943,
        "alt_km": 936.5058349716919,
        "timestamp": "2025-12-25T07:00:34.316976+00:00",
        "meta_object_name": "FENGYUN 1C DEB",
        "meta_object_id": "1999-025BT",
        "meta_epoch": "2025-12-24T16:28:31.485792",
        "meta_mean_motion": 13.92109383,
        "meta_eccentricity": 0.00931989,
        "meta_inclination": 99.2817,
        "meta_ra_of_asc_node": 55.5631,
        "meta_arg_of_pericenter": 177.4327,
        "meta_mean_anomaly": 301.2179,
        "meta_ephemeris_type": 0,
        "meta_classification_type": "U",
        "meta_norad_cat_id": 29777,
        "meta_element_set_no": 999,
        "meta_rev_at_epoch": 96207,
        "meta_bstar": 0.00023704561,
        "meta_mean_motion_dot": 2.69e-06,
        "meta_mean_motion_ddot": 0,
        "tle_line1": "1 29777U 99025BT  25358.68647553  .00000269  00000+0  23705-3 0  9990",
        "tle_line2": "2 29777  99.2817  55.5631 0093198 177.4327 301.2179 13.92109383962072"
      },
      "geometry": {
        "type": "Point",
        "coordinates": [
          128.00706218826943,
          -80.23481240674856
        ]
      }
    },
    {
      "type": "Feature",
      "properties": {
        "norad_id": 29779,
        "name": "FENGYUN 1C DEB",
        "group": "fengyun-1c-debris",
        "lat": 64.18975207932148,
        "lon": -151.44218562493984,
        "alt_km": 796.4601274403076,
        "timestamp": "2025-12-25T07:00:34.316986+00:00",
        "meta_object_name": "FENGYUN 1C DEB",
        "meta_object_id": "1999-025BV",
        "meta_epoch": "2025-12-24T11:47:02.567616",
        "meta_mean_motion": 14.1345291,
        "meta_eccentricity": 0.0063983,
        "meta_inclination": 98.6769,
        "meta_ra_of_asc_node": 9.3752,
        "meta_arg_of_pericenter": 130.9564,
        "meta_mean_anomaly": 229.7171,
        "meta_ephemeris_type": 0,
        "meta_classification_type": "U",
        "meta_norad_cat_id": 29779,
        "meta_element_set_no": 999,
        "meta_rev_at_epoch": 97578,
        "meta_bstar": 0.0002107847,
        "meta_mean_motion_dot": 3.62e-06,
        "meta_mean_motion_ddot": 0,
        "tle_line1": "1 29779U 99025BV  25358.49100194  .00000362  00000+0  21078-3 0  9991",
        "tle_line2": "2 29779  98.6769   9.3752 0063983 130.9564 229.7171 14.13452910975789"
      },
      "geometry": {
        "type": "Point",
        "coordinates": [
          -151.44218562493984,
          64.18975207932148
        ]
      }
    }
  ]
}